#dP2022 10 16  0  0  0.00000000      96 __u+U ITR00 FIT  IAC
## 2232      0.00000000   900.00000000 59868 0.0000000000000
+  118   C06C07C08C09C10C11C12C13C14C16C19C20C21C22C23C24C25
+        C26C27C28C29C30C32C33C34C35C36C37C38C39C40C41C42C43
+        C44C45C46E01E02E03E04E05E07E08E09E10E11E12E13E14E15
+        E18E19E21E24E25E26E27E30E31E33E34E36G01G02G03G04G05
+        G06G07G08G09G10G11G12G13G14G15G16G17G18G19G20G21G22
+        G23G24G25G26G27G28G29G30G31G32J02J03J04R01R02R03R04
+        R05R07R08R09R11R12R13R14R15R17R18R19R20R21R22R24  0
++         9  8  7  7  8  8  8  7  9  9  7  7  8  8  7  7  6
++         7  6  8  6  7  7  7  7  7  6  7  7  9  8  6  7  7
++         8  8  7  8  6  6  7  7  7  7  7  6  7  7  6  6  7
++         7  7  7  7  6  6  6  6  7  6  7  7  7  6  7  6  6
++         6  6  7  6  7  6  6  6  5  6  7  6  5  6  7  6  6
++         6  7  6  6  6  5  6  6  6  6  8  9  6  7  6  8  6
++         6  6  6  8  8  7  7  7  6  7  7  9  8  7  6  6  0
%c M  cc GPS ccc cccc cccc cccc cccc ccccc ccccc ccccc ccccc
%c cc cc ccc ccc cccc cccc cccc cccc ccccc ccccc ccccc ccccc
%f  0.0000000  0.000000000  0.00000000000  0.000000000000000
%f  0.0000000  0.000000000  0.00000000000  0.000000000000000
%i    0    0    0    0      0      0      0      0         0
%i    0    0    0    0      0      0      0      0         0
/* INFORMATION & ANALYSIS CENTER (IAC)      ULTRA-RAPID DATA
/* S/V CLOCKS ARE ALIGNED TO GNSS TIME                      
/* G:C1WC2W R:C1PC2P E:C1XC5X C:C2IC6I J:C1CC2S             
/* PCV:IGS14_2218 OL/AL:FES2004  NONE     YN ORB:CoN CLK:CoN
*  2022 10 16 18  0  0.00000000
PC06  -1527.101979  33656.042610 -25207.382471    893.245750
PC07 -14507.131274  26593.081382  29326.626691   -285.571342
PC08 -16497.483350  38449.752278  -5996.182987    495.513500
PC09   5924.664218  37675.237821 -17046.563786   -833.035538
PC10  -5392.019546  27472.885344  31750.883518     82.754630
PC11 -17399.360910 -21673.226283   2332.444761   -347.739711
PC12  -5177.284907 -23233.635144 -14503.988963   -479.644216
PC13  -9837.135469  38782.137296 -13645.587066    108.572320
PC14 -17721.627139 -10653.220259  18725.309061    575.714517
PC16  -4761.459661  30683.669165 -28214.166420    128.484868
PC19  24824.923523   4851.396410 -11788.416268   -890.869951
PC20   9766.470810  13971.609909 -22096.188762    862.730932
PC21  12355.720183 -15308.368474  19804.620733   -617.127154
PC22  26277.610800  -7433.246674   5786.623050   -847.229185
PC23 -18409.694464  12321.500636 -16967.879659   -587.413840
PC24  -1257.542267 -23844.225656 -14426.317472   -643.239631
PC25 -14810.015262  -6776.353576 -22665.836008     10.644051
PC26  10571.927054 -25796.694643    616.154831    -22.384540
PC27  -2718.647278  19405.016178  19849.819745     36.883421
PC28 -16220.595028   4131.806856  22332.769830     25.029929
PC29  21350.553924  13997.822697 -11276.936584     27.663096
PC30  13053.473760  23711.479492   6755.625642      0.546607
PC32 -12323.983414  15390.588692 -19741.105502   -756.776038
PC33 -24778.863037  -4801.639034  11887.323320   -928.903769
PC34 -13816.217039 -23583.370971  -5678.739475     18.128672
PC35  16963.454163  -3297.168531 -21911.991558     44.755391
PC36  14350.462784   7804.891386  22651.165463   -717.603033
PC37 -11943.160740  25167.706291  -1856.962441   -528.768888
PC38 -20003.150233  37177.260280   2017.035509     31.522363
PC39  -7474.439235  27375.083690 -31110.481001     -0.649818
PC40 -20955.651778  19880.997890  30636.959666     -6.166441
PC41 -26450.671075   7185.784524  -5207.641878   -179.420323
PC42  -8433.642386 -14413.279181  22389.536905   -485.940638
PC43 -21271.746129 -14653.095232  10575.902924     19.914521
PC44   2288.509533 -19467.284741 -19881.161116     83.562081
PC45  18301.465996 -12676.006380  16814.352718    -10.591314
PC46   2495.835564  22933.092731  15736.283966     -6.717607
PE01 -14337.992551  -9738.749619 -23988.305065   -547.655247
PE02  14477.505301   9613.310776  23963.396577    331.128118
PE03  24401.844980  15424.863728  -6576.798463   -610.389268
PE04 -27126.180216  -2718.457509 -11534.354334  -1138.017497
PE05   7252.400248  19332.718779 -21213.886935   -133.917727
PE07  13829.811023 -11942.787534  23285.810086   -713.780474
PE08  27099.417891   2686.346974  11605.591969   -616.440526
PE09 -13891.391690  11761.841261 -23345.034649   -695.480400
PE10 -13685.692431  11820.514037  23431.001945   -484.121763
PE11  -8896.366062  21900.587064  17805.696964   1761.522894
PE12 -16126.230230    632.384691  24812.175027   -225.663351
PE13   9260.358103 -21223.400420 -18431.617159    430.674013
PE14  25183.866209  16493.878886   1169.222016     29.524933
PE15  16076.183581   -364.078982 -24845.411876    713.647973
PE18 -14584.230529 -19689.767309 -10616.954790   -854.134171
PE19 -22803.092965 -16592.870109   8998.815004  -4249.405127
PE21   3481.210997 -20534.854991 -21025.335692   -763.807793
PE24 -21307.429596  19975.578857   4884.690370   -894.727212
PE25  -3786.470465  20644.343682  20886.242782   -590.347846
PE26  -3405.586432 -29393.881272   -385.888790  -1734.570634
PE27  20625.152153 -20402.868988  -5836.453922   -416.871401
PE30  25369.570292  -7481.664121  13271.139527   -921.433601
PE31 -25461.487447   8287.378345 -12610.970457   -505.895332
PE33 -13367.205560 -20567.465462  16568.811526   -454.762246
PE34  13470.901765  20410.200514 -16695.244628     -9.785482
PE36   2913.539556  29431.096673   1278.181118   -446.825257
PG01 -13113.290744  10331.859399  20256.728028    266.541408
PG02  13248.384548  -9050.172414 -20580.237009   -642.086923
PG03 -23508.052068  11534.438532   3970.952583   -365.089159
PG04 -19310.434430   3342.376115 -17972.559336   -102.540848
PG05  22118.452628  -2793.730307 -14701.984260   -100.635855
PG06   6777.327969  23893.327564  -9242.293240    492.968332
PG07  -6441.182133  23277.389887 -10047.435059    298.069632
PG08 -24346.079149  -4298.088505  10139.457960    -89.159358
PG09  -8926.833269  12664.182964 -21655.146320   -282.321377
PG10   1939.894887 -17313.976962  20105.011625     -7.772941
PG11  12174.727671  15360.566891 -17937.833169    -26.637206
PG12  24264.425249  -9777.653932   3994.506418   -292.994068
PG13  22890.548896  12953.029044   4190.947607    407.219083
PG14  -4561.418132  18142.220384  18819.306581    -94.379490
PG15  24695.498631   1548.780274   9589.526247    -20.376576
PG16 -19233.922549  -4362.389861 -18282.546768   -526.286459
PG17   4949.009737  18188.190310  19126.285470    669.327842
PG18   5845.865728 -24161.244738  -9158.568141     12.436518
PG19  15083.475987  19042.371980  10802.847480    224.656488
PG20  13632.436229   8373.501783 -21160.961263    477.865948
PG21 -15549.178272    307.211288  22165.704950    157.906766
PG22 -16933.323515 -18573.857690   9276.755449    346.873635
PG23  12484.728999 -19237.920357  13271.547084     -1.024613
PG24  14765.029082  -6150.057653  20827.872588     97.371147
PG25  18995.692268 -17362.438247  -6239.889865    383.032687
PG26 -11085.478009 -11423.477627 -21368.891023    232.682994
PG27 -23362.739082 -13069.343158   -923.204939    196.902579
PG28   4586.778010  14778.116271  22106.651738    328.185329
PG29  10943.505761 -10465.665027 -21870.578097   -560.105918
PG30   1063.594169  26393.439092    656.339940   -537.208723
PG31  -7688.840442 -22977.684139 -10466.342207   -197.004885
PG32  -9122.652561 -18338.938140  17162.809221   -265.398606
PJ02 -29533.812465  30010.621196   8219.629994     -7.390414
PJ03 -25527.325188  23958.431156  28589.694934     -2.997846
PJ04 -33211.522596  22029.194436  -8657.017659    111.881147
PR01  16388.158624  -8056.913667  17806.602735     16.354070
PR02  -3753.684475 -10962.778554  22766.398332    -23.014655
PR03 -20353.108597  -7517.412935  13501.152145     65.591352
PR04 -25330.486243    -97.297160  -3059.819214    161.407201
PR05 -16554.651298   7361.030881 -17966.592857    101.357873
PR07  20801.221652   7229.066759 -12794.703874     42.683573
PR08  25281.170280   -153.845256   3305.953908    -67.649438
PR09  -4459.717568  20630.930101  14286.191391     82.379961
PR11  15370.084371  -7606.917488  18901.334808     24.378098
PR12  14823.644176 -20559.158222   2820.427423     22.090106
PR13   5841.242922 -21108.866550 -13084.792704    -27.863918
PR14  -7642.480131  -8544.535687 -22772.822333     24.207229
PR15 -15777.526122   8325.124029 -18208.556760     93.185473
PR17 -14188.763392 -19094.824006   9150.404541    569.667914
PR18 -13200.452708  -5353.196106  21188.308780     47.415260
PR19  -6418.416996  10038.235724  22558.643812   -207.501224
PR20   5936.766524  23007.461751   9247.523461    -80.316006
PR21  14320.197707  18266.985518 -10618.537950   -342.076223
PR22  13121.086957   4937.278116 -21280.520404     14.451782
PR24  -6838.430907 -23041.155565  -8489.713969    120.740717
EOF
